[{"OBJECT_NAME":"UWE-3","OBJECT_ID":"2013-066AG","EPOCH":"2026-03-09T20:43:24.491424","MEAN_MOTION":14.96183146,"ECCENTRICITY":0.00484622,"INCLINATION":97.8589,"RA_OF_ASC_NODE":24.3957,"ARG_OF_PERICENTER":291.5404,"MEAN_ANOMALY":68.0655,"EPHEMERIS_TYPE":0,"CLASSIFICATION_TYPE":"U","NORAD_CAT_ID":39446,"ELEMENT_SET_NO":999,"REV_AT_EPOCH":66272,"BSTAR":0.00057141515,"MEAN_MOTION_DOT":6.533e-5,"MEAN_MOTION_DDOT":0},{"OBJECT_NAME":"STARLINK-34408","OBJECT_ID":"2025-126V","EPOCH":"2026-03-09T22:34:11.232192","MEAN_MOTION":14.98362079,"ECCENTRICITY":0.00031482,"INCLINATION":70.0023,"RA_OF_ASC_NODE":33.6546,"ARG_OF_PERICENTER":270.6154,"MEAN_ANOMALY":89.4644,"EPHEMERIS_TYPE":0,"CLASSIFICATION_TYPE":"U","NORAD_CAT_ID":64363,"ELEMENT_SET_NO":999,"REV_AT_EPOCH":4072,"BSTAR":0.00097587334,"MEAN_MOTION_DOT":0.0001158,"MEAN_MOTION_DDOT":0}]
